CCSDS_OMM_VERS = 2.0
CREATION_DATE  = 
ORIGINATOR     = 

OBJECT_NAME    = STARLINK-36879
OBJECT_ID      = 2026-038X
CENTER_NAME    = EARTH
REF_FRAME      = TEME
TIME_SYSTEM    = UTC
MEAN_ELEMENT_THEORY = SGP/SGP4

EPOCH          = 2026-03-20T12:00:00.999648
MEAN_MOTION    = 15.49131945
ECCENTRICITY   = .00009964
INCLINATION    = 97.2857
RA_OF_ASC_NODE = 90.2474
ARG_OF_PERICENTER = 83.3638
MEAN_ANOMALY   = 229.5053

EPHEMERIS_TYPE = 0
CLASSIFICATION_TYPE = U
NORAD_CAT_ID   = 67982
ELEMENT_SET_NO = 999
REV_AT_EPOCH   = 493
BSTAR          = .17495201E-2
MEAN_MOTION_DOT = .96037E-3
MEAN_MOTION_DDOT = 0

CCSDS_OMM_VERS = 2.0
CREATION_DATE  = 
ORIGINATOR     = 

OBJECT_NAME    = STARLINK-36867
OBJECT_ID      = 2026-038Y
CENTER_NAME    = EARTH
REF_FRAME      = TEME
TIME_SYSTEM    = UTC
MEAN_ELEMENT_THEORY = SGP/SGP4

EPOCH          = 2026-03-20T12:00:00.999648
MEAN_MOTION    = 15.49139047
ECCENTRICITY   = .00017773
INCLINATION    = 97.2853
RA_OF_ASC_NODE = 90.2795
ARG_OF_PERICENTER = 103.3395
MEAN_ANOMALY   = 283.5037

EPHEMERIS_TYPE = 0
CLASSIFICATION_TYPE = U
NORAD_CAT_ID   = 67983
ELEMENT_SET_NO = 999
REV_AT_EPOCH   = 493
BSTAR          = .1832849E-2
MEAN_MOTION_DOT = .100703E-2
MEAN_MOTION_DDOT = 0

CCSDS_OMM_VERS = 2.0
CREATION_DATE  = 
ORIGINATOR     = 

OBJECT_NAME    = STARLINK-36266
OBJECT_ID      = 2026-038Z
CENTER_NAME    = EARTH
REF_FRAME      = TEME
TIME_SYSTEM    = UTC
MEAN_ELEMENT_THEORY = SGP/SGP4

EPOCH          = 2026-03-20T12:00:00.999648
MEAN_MOTION    = 15.64790523
ECCENTRICITY   = .00015311
INCLINATION    = 97.2862
RA_OF_ASC_NODE = 90.3838
ARG_OF_PERICENTER = 106.6303
MEAN_ANOMALY   = 178.3622

EPHEMERIS_TYPE = 0
CLASSIFICATION_TYPE = U
NORAD_CAT_ID   = 67984
ELEMENT_SET_NO = 999
REV_AT_EPOCH   = 490
BSTAR          = -.27037903E-1
MEAN_MOTION_DOT = -.2316324E-1
MEAN_MOTION_DDOT = 0

CCSDS_OMM_VERS = 2.0
CREATION_DATE  = 
ORIGINATOR     = 

OBJECT_NAME    = STARLINK-36802
OBJECT_ID      = 2026-038AA
CENTER_NAME    = EARTH
REF_FRAME      = TEME
TIME_SYSTEM    = UTC
MEAN_ELEMENT_THEORY = SGP/SGP4

EPOCH          = 2026-03-19T23:53:57.205536
MEAN_MOTION    = 15.75259861
ECCENTRICITY   = .00013943
INCLINATION    = 97.2877
RA_OF_ASC_NODE = 89.8680
ARG_OF_PERICENTER = 94.2528
MEAN_ANOMALY   = 265.8897

EPHEMERIS_TYPE = 0
CLASSIFICATION_TYPE = U
NORAD_CAT_ID   = 67985
ELEMENT_SET_NO = 999
REV_AT_EPOCH   = 481
BSTAR          = .12801716E-2
MEAN_MOTION_DOT = .19585E-2
MEAN_MOTION_DDOT = 0

CCSDS_OMM_VERS = 2.0
CREATION_DATE  = 
ORIGINATOR     = 

OBJECT_NAME    = STARLINK-36535
OBJECT_ID      = 2026-039A
CENTER_NAME    = EARTH
REF_FRAME      = TEME
TIME_SYSTEM    = UTC
MEAN_ELEMENT_THEORY = SGP/SGP4

EPOCH          = 2026-03-20T12:00:00.999648
MEAN_MOTION    = 15.56838821
ECCENTRICITY   = .00012768
INCLINATION    = 42.9997
RA_OF_ASC_NODE = 349.3668
ARG_OF_PERICENTER = 253.2173
MEAN_ANOMALY   = 321.8221

EPHEMERIS_TYPE = 0
CLASSIFICATION_TYPE = U
NORAD_CAT_ID   = 67986
ELEMENT_SET_NO = 999
REV_AT_EPOCH   = 461
BSTAR          = -.29532089E-1
MEAN_MOTION_DOT = -.1919105E-1
MEAN_MOTION_DDOT = 0

CCSDS_OMM_VERS = 2.0
CREATION_DATE  = 
ORIGINATOR     = 

OBJECT_NAME    = STARLINK-36744
OBJECT_ID      = 2026-039B
CENTER_NAME    = EARTH
REF_FRAME      = TEME
TIME_SYSTEM    = UTC
MEAN_ELEMENT_THEORY = SGP/SGP4

EPOCH          = 2026-03-20T12:00:00.999648
MEAN_MOTION    = 15.58305300
ECCENTRICITY   = .00012323
INCLINATION    = 43.0001
RA_OF_ASC_NODE = 349.2788
ARG_OF_PERICENTER = 251.2588
MEAN_ANOMALY   = 358.9682

EPHEMERIS_TYPE = 0
CLASSIFICATION_TYPE = U
NORAD_CAT_ID   = 67987
ELEMENT_SET_NO = 999
REV_AT_EPOCH   = 461
BSTAR          = -.27951057E-1
MEAN_MOTION_DOT = -.1920186E-1
MEAN_MOTION_DDOT = 0

CCSDS_OMM_VERS = 2.0
CREATION_DATE  = 
ORIGINATOR     = 

OBJECT_NAME    = STARLINK-36734
OBJECT_ID      = 2026-039C
CENTER_NAME    = EARTH
REF_FRAME      = TEME
TIME_SYSTEM    = UTC
MEAN_ELEMENT_THEORY = SGP/SGP4

EPOCH          = 2026-03-20T12:00:00.999648
MEAN_MOTION    = 15.50613070
ECCENTRICITY   = .00017877
INCLINATION    = 43.0002
RA_OF_ASC_NODE = 350.3961
ARG_OF_PERICENTER = 259.6622
MEAN_ANOMALY   = 258.5272

EPHEMERIS_TYPE = 0
CLASSIFICATION_TYPE = U
NORAD_CAT_ID   = 67988
ELEMENT_SET_NO = 999
REV_AT_EPOCH   = 461
BSTAR          = -.171096E-2
MEAN_MOTION_DOT = -.99573E-3
MEAN_MOTION_DDOT = 0

CCSDS_OMM_VERS = 2.0
CREATION_DATE  = 
ORIGINATOR     = 

OBJECT_NAME    = STARLINK-36957
OBJECT_ID      = 2026-039D
CENTER_NAME    = EARTH
REF_FRAME      = TEME
TIME_SYSTEM    = UTC
MEAN_ELEMENT_THEORY = SGP/SGP4

EPOCH          = 2026-03-20T12:00:00.999648
MEAN_MOTION    = 15.57168069
ECCENTRICITY   = .00012406
INCLINATION    = 42.9997
RA_OF_ASC_NODE = 349.3156
ARG_OF_PERICENTER = 253.4429
MEAN_ANOMALY   = 341.4876

EPHEMERIS_TYPE = 0
CLASSIFICATION_TYPE = U
NORAD_CAT_ID   = 67989
ELEMENT_SET_NO = 999
REV_AT_EPOCH   = 461
BSTAR          = -.2923049E-1
MEAN_MOTION_DOT = -.1922768E-1
MEAN_MOTION_DDOT = 0

CCSDS_OMM_VERS = 2.0
CREATION_DATE  = 
ORIGINATOR     = 

OBJECT_NAME    = STARLINK-36951
OBJECT_ID      = 2026-039E
CENTER_NAME    = EARTH
REF_FRAME      = TEME
TIME_SYSTEM    = UTC
MEAN_ELEMENT_THEORY = SGP/SGP4

EPOCH          = 2026-03-20T12:00:00.999648
MEAN_MOTION    = 15.53072945
ECCENTRICITY   = .00016611
INCLINATION    = 42.9997
RA_OF_ASC_NODE = 349.5356
ARG_OF_PERICENTER = 266.3976
MEAN_ANOMALY   = 240.1686

EPHEMERIS_TYPE = 0
CLASSIFICATION_TYPE = U
NORAD_CAT_ID   = 67990
ELEMENT_SET_NO = 999
REV_AT_EPOCH   = 461
BSTAR          = -.28943877E-1
MEAN_MOTION_DOT = -.166469E-1
MEAN_MOTION_DDOT = 0

CCSDS_OMM_VERS = 2.0
CREATION_DATE  = 
ORIGINATOR     = 

OBJECT_NAME    = STARLINK-36941
OBJECT_ID      = 2026-039F
CENTER_NAME    = EARTH
REF_FRAME      = TEME
TIME_SYSTEM    = UTC
MEAN_ELEMENT_THEORY = SGP/SGP4

EPOCH          = 2026-03-20T12:00:00.999648
MEAN_MOTION    = 15.50530667
ECCENTRICITY   = .00016255
INCLINATION    = 43.0004
RA_OF_ASC_NODE = 350.3871
ARG_OF_PERICENTER = 261.3914
MEAN_ANOMALY   = 260.2550

EPHEMERIS_TYPE = 0
CLASSIFICATION_TYPE = U
NORAD_CAT_ID   = 67991
ELEMENT_SET_NO = 999
REV_AT_EPOCH   = 461
BSTAR          = .54329124E-3
MEAN_MOTION_DOT = .31605E-3
MEAN_MOTION_DDOT = 0

CCSDS_OMM_VERS = 2.0
CREATION_DATE  = 
ORIGINATOR     = 

OBJECT_NAME    = STARLINK-36950
OBJECT_ID      = 2026-039G
CENTER_NAME    = EARTH
REF_FRAME      = TEME
TIME_SYSTEM    = UTC
MEAN_ELEMENT_THEORY = SGP/SGP4

EPOCH          = 2026-03-20T12:00:00.999648
MEAN_MOTION    = 15.50637292
ECCENTRICITY   = .00018672
INCLINATION    = 43.0001
RA_OF_ASC_NODE = 350.0086
ARG_OF_PERICENTER = 250.0898
MEAN_ANOMALY   = 64.2725

EPHEMERIS_TYPE = 0
CLASSIFICATION_TYPE = U
NORAD_CAT_ID   = 67992
ELEMENT_SET_NO = 999
REV_AT_EPOCH   = 461
BSTAR          = -.22485571E-2
MEAN_MOTION_DOT = -.130358E-2
MEAN_MOTION_DDOT = 0

CCSDS_OMM_VERS = 2.0
CREATION_DATE  = 
ORIGINATOR     = 

OBJECT_NAME    = STARLINK-36975
OBJECT_ID      = 2026-039H
CENTER_NAME    = EARTH
REF_FRAME      = TEME
TIME_SYSTEM    = UTC
MEAN_ELEMENT_THEORY = SGP/SGP4

EPOCH          = 2026-03-20T12:00:00.999648
MEAN_MOTION    = 15.50608148
ECCENTRICITY   = .00016601
INCLINATION    = 42.9999
RA_OF_ASC_NODE = 349.9112
ARG_OF_PERICENTER = 240.7725
MEAN_ANOMALY   = 112.8578

EPHEMERIS_TYPE = 0
CLASSIFICATION_TYPE = U
NORAD_CAT_ID   = 67993
ELEMENT_SET_NO = 999
REV_AT_EPOCH   = 461
BSTAR          = -.15966161E-2
MEAN_MOTION_DOT = -.93001E-3
MEAN_MOTION_DDOT = 0

