STARLINK-36879          
1 67982U 26038X   26079.50001157  .00096037  00000+0  17495-2 0  9996
2 67982  97.2857  90.2474 0000996  83.3638 229.5053 15.49131945  4937
STARLINK-36867          
1 67983U 26038Y   26079.50001157  .00100703  00000+0  18328-2 0  9999
2 67983  97.2853  90.2795 0001777 103.3395 283.5037 15.49139047  4934
STARLINK-36266          
1 67984U 26038Z   26079.50001157 -.02316324  00000+0 -27038-1 0  9999
2 67984  97.2862  90.3838 0001531 106.6303 178.3622 15.64790523  4904
STARLINK-36802          
1 67985U 26038AA  26078.99580099  .00195850  00000+0  12802-2 0  9998
2 67985  97.2877  89.8680 0001394  94.2528 265.8897 15.75259861  4810
STARLINK-36535          
1 67986U 26039A   26079.50001157 -.01919105  00000+0 -29532-1 0  9998
2 67986  42.9997 349.3668 0001276 253.2173 321.8221 15.56838821  4613
STARLINK-36744          
1 67987U 26039B   26079.50001157 -.01920186  00000+0 -27951-1 0  9993
2 67987  43.0001 349.2788 0001232 251.2588 358.9682 15.58305300  4619
STARLINK-36734          
1 67988U 26039C   26079.50001157 -.00099573  00000+0 -17110-2 0  9997
2 67988  43.0002 350.3961 0001787 259.6622 258.5272 15.50613070  4611
STARLINK-36957          
1 67989U 26039D   26079.50001157 -.01922768  00000+0 -29230-1 0  9995
2 67989  42.9997 349.3156 0001240 253.4429 341.4876 15.57168069  4610
STARLINK-36951          
1 67990U 26039E   26079.50001157 -.01664690  00000+0 -28944-1 0  9995
2 67990  42.9997 349.5356 0001661 266.3976 240.1686 15.53072945  4610
STARLINK-36941          
1 67991U 26039F   26079.50001157  .00031605  00000+0  54329-3 0  9995
2 67991  43.0004 350.3871 0001625 261.3914 260.2550 15.50530667  4611
STARLINK-36950          
1 67992U 26039G   26079.50001157 -.00130358  00000+0 -22486-2 0  9991
2 67992  43.0001 350.0086 0001867 250.0898  64.2725 15.50637292  4616
STARLINK-36975          
1 67993U 26039H   26079.50001157 -.00093001  00000+0 -15966-2 0  9990
2 67993  42.9999 349.9112 0001660 240.7725 112.8578 15.50608148  4618
